CCSDS_OMM_VERS = 2.0
CREATION_DATE  = 
ORIGINATOR     = 

OBJECT_NAME    = STARLINK-36889
OBJECT_ID      = 2026-039W
CENTER_NAME    = EARTH
REF_FRAME      = TEME
TIME_SYSTEM    = UTC
MEAN_ELEMENT_THEORY = SGP/SGP4

EPOCH          = 2026-03-11T06:00:02.000160
MEAN_MOTION    = 15.81965183
ECCENTRICITY   = .00013457
INCLINATION    = 42.9995
RA_OF_ASC_NODE = 45.1600
ARG_OF_PERICENTER = 268.6748
MEAN_ANOMALY   = 119.3561

EPHEMERIS_TYPE = 0
CLASSIFICATION_TYPE = U
NORAD_CAT_ID   = 68006
ELEMENT_SET_NO = 999
REV_AT_EPOCH   = 312
BSTAR          = .35995181E-3
MEAN_MOTION_DOT = .75743E-3
MEAN_MOTION_DDOT = 0

CCSDS_OMM_VERS = 2.0
CREATION_DATE  = 
ORIGINATOR     = 

OBJECT_NAME    = STARLINK-36592
OBJECT_ID      = 2026-039X
CENTER_NAME    = EARTH
REF_FRAME      = TEME
TIME_SYSTEM    = UTC
MEAN_ELEMENT_THEORY = SGP/SGP4

EPOCH          = 2026-03-11T06:00:02.000160
MEAN_MOTION    = 15.81970829
ECCENTRICITY   = .00016101
INCLINATION    = 42.9994
RA_OF_ASC_NODE = 45.1501
ARG_OF_PERICENTER = 273.5455
MEAN_ANOMALY   = 118.7562

EPHEMERIS_TYPE = 0
CLASSIFICATION_TYPE = U
NORAD_CAT_ID   = 68007
ELEMENT_SET_NO = 999
REV_AT_EPOCH   = 312
BSTAR          = .33553696E-3
MEAN_MOTION_DOT = .70546E-3
MEAN_MOTION_DDOT = 0

CCSDS_OMM_VERS = 2.0
CREATION_DATE  = 
ORIGINATOR     = 

OBJECT_NAME    = STARLINK-36911
OBJECT_ID      = 2026-039Y
CENTER_NAME    = EARTH
REF_FRAME      = TEME
TIME_SYSTEM    = UTC
MEAN_ELEMENT_THEORY = SGP/SGP4

EPOCH          = 2026-03-11T06:00:02.000160
MEAN_MOTION    = 15.81967907
ECCENTRICITY   = .00016901
INCLINATION    = 42.9995
RA_OF_ASC_NODE = 45.1398
ARG_OF_PERICENTER = 275.3407
MEAN_ANOMALY   = 121.2323

EPHEMERIS_TYPE = 0
CLASSIFICATION_TYPE = U
NORAD_CAT_ID   = 68008
ELEMENT_SET_NO = 999
REV_AT_EPOCH   = 312
BSTAR          = .36793297E-3
MEAN_MOTION_DOT = .77461E-3
MEAN_MOTION_DDOT = 0

CCSDS_OMM_VERS = 2.0
CREATION_DATE  = 
ORIGINATOR     = 

OBJECT_NAME    = STARLINK-36956
OBJECT_ID      = 2026-039Z
CENTER_NAME    = EARTH
REF_FRAME      = TEME
TIME_SYSTEM    = UTC
MEAN_ELEMENT_THEORY = SGP/SGP4

EPOCH          = 2026-03-11T06:00:02.000160
MEAN_MOTION    = 15.81949520
ECCENTRICITY   = .00019037
INCLINATION    = 42.9993
RA_OF_ASC_NODE = 45.1282
ARG_OF_PERICENTER = 280.4929
MEAN_ANOMALY   = 120.3571

EPHEMERIS_TYPE = 0
CLASSIFICATION_TYPE = U
NORAD_CAT_ID   = 68009
ELEMENT_SET_NO = 999
REV_AT_EPOCH   = 312
BSTAR          = .50528066E-3
MEAN_MOTION_DOT = .106851E-2
MEAN_MOTION_DDOT = 0

CCSDS_OMM_VERS = 2.0
CREATION_DATE  = 
ORIGINATOR     = 

OBJECT_NAME    = STARLINK-36953
OBJECT_ID      = 2026-039AA
CENTER_NAME    = EARTH
REF_FRAME      = TEME
TIME_SYSTEM    = UTC
MEAN_ELEMENT_THEORY = SGP/SGP4

EPOCH          = 2026-03-11T06:00:02.000160
MEAN_MOTION    = 15.82056184
ECCENTRICITY   = .00012742
INCLINATION    = 42.9991
RA_OF_ASC_NODE = 45.1059
ARG_OF_PERICENTER = 269.4042
MEAN_ANOMALY   = 139.9658

EPHEMERIS_TYPE = 0
CLASSIFICATION_TYPE = U
NORAD_CAT_ID   = 68010
ELEMENT_SET_NO = 999
REV_AT_EPOCH   = 312
BSTAR          = -.42426495E-3
MEAN_MOTION_DOT = -.89118E-3
MEAN_MOTION_DDOT = 0

CCSDS_OMM_VERS = 2.0
CREATION_DATE  = 
ORIGINATOR     = 

OBJECT_NAME    = STARLINK-36991
OBJECT_ID      = 2026-039AB
CENTER_NAME    = EARTH
REF_FRAME      = TEME
TIME_SYSTEM    = UTC
MEAN_ELEMENT_THEORY = SGP/SGP4

EPOCH          = 2026-03-11T06:00:02.000160
MEAN_MOTION    = 15.81973032
ECCENTRICITY   = .00014404
INCLINATION    = 42.9990
RA_OF_ASC_NODE = 45.0955
ARG_OF_PERICENTER = 271.2589
MEAN_ANOMALY   = 142.3934

EPHEMERIS_TYPE = 0
CLASSIFICATION_TYPE = U
NORAD_CAT_ID   = 68011
ELEMENT_SET_NO = 999
REV_AT_EPOCH   = 312
BSTAR          = -.10477176E-1
MEAN_MOTION_DOT = -.1919532E-1
MEAN_MOTION_DDOT = 0

CCSDS_OMM_VERS = 2.0
CREATION_DATE  = 
ORIGINATOR     = 

OBJECT_NAME    = STARLINK-36936
OBJECT_ID      = 2026-039AC
CENTER_NAME    = EARTH
REF_FRAME      = TEME
TIME_SYSTEM    = UTC
MEAN_ELEMENT_THEORY = SGP/SGP4

EPOCH          = 2026-03-11T06:00:02.000160
MEAN_MOTION    = 15.81945231
ECCENTRICITY   = .00010998
INCLINATION    = 42.9989
RA_OF_ASC_NODE = 45.0735
ARG_OF_PERICENTER = 269.5264
MEAN_ANOMALY   = 152.6684

EPHEMERIS_TYPE = 0
CLASSIFICATION_TYPE = U
NORAD_CAT_ID   = 68012
ELEMENT_SET_NO = 999
REV_AT_EPOCH   = 312
BSTAR          = .65083794E-3
MEAN_MOTION_DOT = .138257E-2
MEAN_MOTION_DDOT = 0

CCSDS_OMM_VERS = 2.0
CREATION_DATE  = 
ORIGINATOR     = 

OBJECT_NAME    = STARLINK-36967
OBJECT_ID      = 2026-039AD
CENTER_NAME    = EARTH
REF_FRAME      = TEME
TIME_SYSTEM    = UTC
MEAN_ELEMENT_THEORY = SGP/SGP4

EPOCH          = 2026-03-11T06:00:02.000160
MEAN_MOTION    = 15.82159125
ECCENTRICITY   = .00017658
INCLINATION    = 42.9991
RA_OF_ASC_NODE = 45.1165
ARG_OF_PERICENTER = 278.8132
MEAN_ANOMALY   = 126.2706

EPHEMERIS_TYPE = 0
CLASSIFICATION_TYPE = U
NORAD_CAT_ID   = 68013
ELEMENT_SET_NO = 999
REV_AT_EPOCH   = 312
BSTAR          = -.22344551E-2
MEAN_MOTION_DOT = -.450447E-2
MEAN_MOTION_DDOT = 0

CCSDS_OMM_VERS = 2.0
CREATION_DATE  = 
ORIGINATOR     = 

OBJECT_NAME    = STARLINK-36985
OBJECT_ID      = 2026-039AE
CENTER_NAME    = EARTH
REF_FRAME      = TEME
TIME_SYSTEM    = UTC
MEAN_ELEMENT_THEORY = SGP/SGP4

EPOCH          = 2026-03-11T06:00:02.000160
MEAN_MOTION    = 15.81944288
ECCENTRICITY   = .00021073
INCLINATION    = 42.9990
RA_OF_ASC_NODE = 45.0847
ARG_OF_PERICENTER = 277.2370
MEAN_ANOMALY   = 140.6740

EPHEMERIS_TYPE = 0
CLASSIFICATION_TYPE = U
NORAD_CAT_ID   = 68014
ELEMENT_SET_NO = 999
REV_AT_EPOCH   = 312
BSTAR          = .76651395E-3
MEAN_MOTION_DOT = .163404E-2
MEAN_MOTION_DDOT = 0

CCSDS_OMM_VERS = 2.0
CREATION_DATE  = 
ORIGINATOR     = 

OBJECT_NAME    = STARLINK-36335
OBJECT_ID      = 2026-040A
CENTER_NAME    = EARTH
REF_FRAME      = TEME
TIME_SYSTEM    = UTC
MEAN_ELEMENT_THEORY = SGP/SGP4

EPOCH          = 2026-03-11T06:00:02.000160
MEAN_MOTION    = 16.01926623
ECCENTRICITY   = .00010727
INCLINATION    = 97.2762
RA_OF_ASC_NODE = 18.5658
ARG_OF_PERICENTER = 105.1228
MEAN_ANOMALY   = 14.8713

EPHEMERIS_TYPE = 0
CLASSIFICATION_TYPE = U
NORAD_CAT_ID   = 68015
ELEMENT_SET_NO = 999
REV_AT_EPOCH   = 262
BSTAR          = -.18578079E-2
MEAN_MOTION_DOT = -.1047413E-1
MEAN_MOTION_DDOT = .36505249E-3

CCSDS_OMM_VERS = 2.0
CREATION_DATE  = 
ORIGINATOR     = 

OBJECT_NAME    = STARLINK-36923
OBJECT_ID      = 2026-040B
CENTER_NAME    = EARTH
REF_FRAME      = TEME
TIME_SYSTEM    = UTC
MEAN_ELEMENT_THEORY = SGP/SGP4

EPOCH          = 2026-03-11T06:00:02.000160
MEAN_MOTION    = 16.02137044
ECCENTRICITY   = .00009897
INCLINATION    = 97.2763
RA_OF_ASC_NODE = 18.5690
ARG_OF_PERICENTER = 107.1413
MEAN_ANOMALY   = 19.1044

EPHEMERIS_TYPE = 0
CLASSIFICATION_TYPE = U
NORAD_CAT_ID   = 68016
ELEMENT_SET_NO = 999
REV_AT_EPOCH   = 267
BSTAR          = -.18437335E-2
MEAN_MOTION_DOT = -.1052193E-1
MEAN_MOTION_DDOT = .36903721E-3

CCSDS_OMM_VERS = 2.0
CREATION_DATE  = 
ORIGINATOR     = 

OBJECT_NAME    = STARLINK-36568
OBJECT_ID      = 2026-040C
CENTER_NAME    = EARTH
REF_FRAME      = TEME
TIME_SYSTEM    = UTC
MEAN_ELEMENT_THEORY = SGP/SGP4

EPOCH          = 2026-03-11T06:00:02.000160
MEAN_MOTION    = 16.02239591
ECCENTRICITY   = .00010094
INCLINATION    = 97.2760
RA_OF_ASC_NODE = 18.5701
ARG_OF_PERICENTER = 107.4108
MEAN_ANOMALY   = 21.7218

EPHEMERIS_TYPE = 0
CLASSIFICATION_TYPE = U
NORAD_CAT_ID   = 68017
ELEMENT_SET_NO = 999
REV_AT_EPOCH   = 267
BSTAR          = -.18415238E-2
MEAN_MOTION_DOT = -.1057174E-1
MEAN_MOTION_DDOT = .37271782E-3

