STARLINK-36889          
1 68006U 26039W   26070.25002315  .00075743  00000+0  35995-3 0  9992
2 68006  42.9995  45.1600 0001345 268.6748 119.3561 15.81965183  3129
STARLINK-36592          
1 68007U 26039X   26070.25002315  .00070546  00000+0  33554-3 0  9998
2 68007  42.9994  45.1501 0001610 273.5455 118.7562 15.81970829  3121
STARLINK-36911          
1 68008U 26039Y   26070.25002315  .00077461  00000+0  36793-3 0  9990
2 68008  42.9995  45.1398 0001690 275.3407 121.2323 15.81967907  3129
STARLINK-36956          
1 68009U 26039Z   26070.25002315  .00106851  00000+0  50528-3 0  9999
2 68009  42.9993  45.1282 0001903 280.4929 120.3571 15.81949520  3129
STARLINK-36953          
1 68010U 26039AA  26070.25002315 -.00089118  00000+0 -42426-3 0  9997
2 68010  42.9991  45.1059 0001274 269.4042 139.9658 15.82056184  3123
STARLINK-36991          
1 68011U 26039AB  26070.25002315 -.01919532  00000+0 -10477-1 0  9990
2 68011  42.9990  45.0955 0001440 271.2589 142.3934 15.81973032  3123
STARLINK-36936          
1 68012U 26039AC  26070.25002315  .00138257  00000+0  65084-3 0  9991
2 68012  42.9989  45.0735 0001099 269.5264 152.6684 15.81945231  3124
STARLINK-36967          
1 68013U 26039AD  26070.25002315 -.00450447  00000+0 -22345-2 0  9994
2 68013  42.9991  45.1165 0001765 278.8132 126.2706 15.82159125  3125
STARLINK-36985          
1 68014U 26039AE  26070.25002315  .00163404  00000+0  76651-3 0  9997
2 68014  42.9990  45.0847 0002107 277.2370 140.6740 15.81944288  3128
STARLINK-36335          
1 68015U 26040A   26070.25002315 -.01047413  36505-3 -18578-2 0  9990
2 68015  97.2762  18.5658 0001072 105.1228  14.8713 16.01926623  2627
STARLINK-36923          
1 68016U 26040B   26070.25002315 -.01052193  36904-3 -18437-2 0  9999
2 68016  97.2763  18.5690 0000989 107.1413  19.1044 16.02137044  2671
STARLINK-36568          
1 68017U 26040C   26070.25002315 -.01057174  37272-3 -18415-2 0  9999
2 68017  97.2760  18.5701 0001009 107.4108  21.7218 16.02239591  2672
